    CK23T030  2025 01 25.3499  3.548351  0.995292  302.8468  246.0006   27.2220  20240907   8.5  4.0  C/2023 T3 (Fuls)                                         MPEC 2024-M41
    CK23T22D  2024 09 16.2903  2.356809  0.951021   32.5336    5.5560  170.4896  20240907  12.5  4.0  C/2023 TD22 (Lemmon)                                     MPEC 2024-R10
    CK23U010  2024 10 12.7060  4.972867  0.997817  255.6198  305.8086  108.1458  20240907   8.0  4.0  C/2023 U1 (Fuls)                                         MPEC 2024-R10
    CK23V010  2025 07 13.0567  5.092613  1.000006  103.3120   15.0314  102.0126  20240907   8.5  4.0  C/2023 V1 (Lemmon)                                       MPEC 2024-Q20
    PK23V020  2024 02  3.8999  3.104178  0.570731  330.5487   95.4723    9.8878  20240907  13.5  4.0  P/2023 V2 (PANSTARRS)                                    MPEC 2024-D33
    CK23V030  2023 08  7.2317  4.473938  0.663154  291.7518   91.3763   40.3748  20240907  11.5  4.0  C/2023 V3 (PANSTARRS)                                    MPEC 2024-A43
    CK23V040  2024 05 30.3661  1.121722  1.000983   50.8566   66.3260   67.1301  20240907  12.0  4.0  C/2023 V4 (Camarasa-Duszanowicz)                         MPEC 2024-R10
    CK23V050  2023 12 13.8760  0.846252  1.009342   56.9603   31.5200   73.5753  20240907  21.5  4.0  C/2023 V5 (Leonard)                                      MPEC 2024-GJ3
    PK23V060  2022 12 10.5123  4.378199  0.176381  193.2494  189.9102    3.9742  20240907  11.5  4.0  P/2023 V6 (PANSTARRS)                                    MPEC 2024-AF0
    CK23X010  2023 10 18.0645  0.950546  0.994001  321.4676  137.0114  110.5872  20240907  13.5  3.2  C/2023 X1 (Leonard)                                      MPEC 2024-GJ3
    CK23X020  2025 12 26.8386  5.093638  1.001579   64.5986   66.3136   77.0007  20240907   8.5  3.2  C/2023 X2 (Lemmon)                                       MPEC 2024-DC6
    PK23X030  2024 04 21.9708  3.030171  0.286279   40.8241   62.0125    4.4834  20240907  15.5  4.0  P/2023 X3 (PANSTARRS)                                    MPEC 2024-A43
    CK23X040  2024 05 24.8153  3.658053  0.630947  100.5509   28.7660   11.5947  20240907  12.0  4.0  C/2023 X4 (Hogan)                                        MPEC 2024-JU4
    CK23X070  2025 05 14.9290  4.820777  1.002460  354.3558  119.2071   69.0563  20240907   9.0  4.0  C/2023 X7 (PANSTARRS)                                    MPEC 2024-DA2
    PK23Y010  2023 11 29.8011  2.079878  0.445216   51.4493   78.8560    6.3841  20240907  17.0  4.0  P/2023 Y1 (Gibbs)                                        MPEC 2024-JU4
    PK23Y020  2023 08  9.9629  2.276356  0.392261   16.8460   79.2284    6.9928  20240907  15.5  4.0  P/2023 Y2 (Gibbs)                                        MPEC 2024-F34
    CK24A010  2025 06 13.7007  3.875509  1.001396  353.3052  112.1414   94.4465  20240907   7.0  4.0  C/2024 A1 (ATLAS)                                        MPEC 2024-JU4
    CK24A020  2024 04 28.9207  1.881639  0.942041  295.5841   78.1665  119.1131  20240907  12.5  4.0  C/2024 A2 (ATLAS)                                        MPEC 2024-R10
    CK24B010  2024 10  7.7014  1.633648  1.000836   66.2094   79.1877   70.9049  20240907  13.0  4.0  C/2024 B1 (Lemmon)                                       MPEC 2024-R10
    CK24B020  2023 10  6.0831  4.076979  0.999110  130.3314  294.3783   99.8412  20240907  11.5  4.0  C/2024 B2 (Lemmon)                                       MPEC 2024-GJ3
    CK24C010  2024 08 30.8718  4.412936  0.582289   94.4658   83.8103   14.2268  20240907  11.5  4.0  C/2024 C1 (PANSTARRS)                                    MPEC 2024-M41
    CK24C020  2025 03 10.3407  8.991400  0.444855   87.5374   66.4417   27.2844  20240907   6.0  4.0  C/2024 C2 (PANSTARRS)                                    MPEC 2024-JU4
    CK24C030  2023 11  8.0962  6.712603  0.423883  159.6505  359.7091   22.4624  20240907   9.0  4.0  C/2024 C3 (PANSTARRS)                                    MPEC 2024-GJ3
    CK24C040  2024 01 30.1949  1.471149  0.982476  321.5182  220.6840   79.2865  20240907  14.5  4.0  C/2024 C4 (ATLAS)                                        MPEC 2024-Q20
    AK24D010  2027 12  5.0577  6.702565  0.996214  125.7402  179.6681  132.4503  20240907  11.0  2.0  A/2024 D1                                                MPEC 2024-EG1
    CK24E010  2026 01 20.7741  0.565437  1.000007  243.6531  108.1004   75.2352  20240907   7.0  4.0  C/2024 E1 (Wierzchos)                                    MPEC 2024-Q20
    CK24E020  2023 10 24.1165  7.692391  0.851235  358.0578  135.6509  155.6480  20240907   8.0  4.0  C/2024 E2 (Bok)                                          MPEC 2024-JU4
    PK24F010  2023 10 25.6668  1.859646  0.459878  229.5490  251.5419    7.0054  20240907  16.0  4.0  P/2024 F1 (PANSTARRS)                                    MPEC 2024-JU4
    CK24F020  2024 07 29.1499  3.968282  0.601171  112.9110  138.9473   13.7409  20240907  11.0  4.0  C/2024 F2 (PANSTARRS)                                    MPEC 2024-Q20
    PK24F09G  2024 05 20.3498  1.596389  0.509778  245.9133  253.0441    1.7312  20240907  14.0  4.0  P/2024 FG9 (Nanshan-Hahn)                                MPEC 2024-R10
    CK24G010  2024 10 21.0793  3.930218  0.967671  128.2254   30.5999   95.4006  20240907  10.0  4.0  C/2024 G1 (Wierzchos)                                    MPEC 2024-PC5
    CK24G020  2025 06 13.7792  5.345668  0.994017  328.7904  171.3947  122.1316  20240907   7.0  4.0  C/2024 G2 (ATLAS)                                        MPEC 2024-JU4
    CK24G030  2025 01 13.4285  0.093519  1.000010  108.1252  220.3369  116.8478  20240907   9.0  4.0  C/2024 G3 (ATLAS)                                        MPEC 2024-R10
    CK24G040  2026 03 21.7623  4.899630  0.998400  131.4297  152.9975   33.0273  20240907   8.0  4.0  C/2024 G4 (PANSTARRS)                                    MPEC 2024-P23
    CK24G050  2024 09  7.0008  2.952854  0.994554  209.5629  316.3986   50.3889  20240907  13.0  4.0  C/2024 G5 (Leonard)                                      MPEC 2024-JC6
    CK24G060  2026 02 21.0181  6.428919  1.002349   23.4659  250.9516  120.4580  20240907   5.5  4.0  C/2024 G6 (ATLAS)                                        MPEC 2024-R10
    CK24G070  2025 02 10.2714  6.027657  1.001687  289.6624  191.9489  131.5187  20240907   7.0  4.0  C/2024 G7 (ATLAS)                                        MPEC 2024-Q20
    AK24G080  2024 06 15.6050  1.172380  0.991846  249.1581   11.2472   97.4108  20240907  20.0  2.0  A/2024 G8                                                MPEC 2024-Q05
    PK24J010  2023 11 11.1857  2.636912  0.307525  200.3416  321.9511   13.1579  20240907  14.5  4.0  P/2024 J1 (PANSTARRS)                                    MPEC 2024-JU4
    CK24J020  2025 03 19.7508  1.810800  0.987867  143.1544  189.0607   79.2961  20240907  11.5  4.0  C/2024 J2 (Wierzchos)                                    MPEC 2024-R10
    CK24J030  2026 11 25.2638  3.864520  1.000920   74.0942  285.9640   75.6270  20240907   5.0  4.0  C/2024 J3 (ATLAS)                                        MPEC 2024-R10
    CK24J040  2025 04 26.1715  5.694900  0.998597  127.8687   19.2957  117.5354  20240907   8.0  4.0  C/2024 J4 (Lemmon)                                       MPEC 2024-Q20
    PK24K010  2024 05  9.1204  3.456024  0.495247  351.9621  251.6907    1.7862  20240907  13.5  4.0  P/2024 K1 (PANSTARRS)                                    MPEC 2024-LB4
    CK24L010  2025 04 23.5507  5.347753  0.533279  171.8340   45.1393   99.1718  20240907  10.0  4.0  C/2024 L1 (PANSTARRS)                                    MPEC 2024-NE4
    CK24L020  2025 06 13.3888  8.325992  0.981812  345.6511  266.2868  139.4865  20240907   7.5  3.2  C/2024 L2 (PANSTARRS)                                    MPEC 2024-P23
    CK24L030  2023 11 25.9216  6.859335  1.002257   59.2079  294.9772  111.5907  20240907   9.0  4.0  C/2024 L3 (PANSTARRS)                                    MPEC 2024-NA5
    PK24L040  2024 04 14.2910  0.672171  0.698384   53.7098  139.7765   10.0464  20240907  21.5  4.0  P/2024 L4 (Rankin)                                       MPEC 2024-P23
    CK24L050  2025 03 10.5001  3.431718  1.037315  290.5317  139.1669  166.5730  20240907   9.0  4.0  C/2024 L5 (ATLAS)                                        MPEC 2024-R10
    CK24M010  2024 11 20.0364  1.703361  0.942952  345.6045   76.2153   73.7101  20240907  12.0  4.0  C/2024 M1 (ATLAS)                                        MPEC 2024-R10
    CK24N010  2025 10 18.5530  4.400249  1.002091   91.2013  323.0154   88.7774  20240907  10.5  4.0  C/2024 N1 (PANSTARRS)                                    MPEC 2024-NE4
    PK24N020  2024 05 31.0505  2.440367  0.357055   48.8834  245.0459    7.7898  20240907  16.0  4.0  P/2024 N2 (PANSTARRS)                                    MPEC 2024-Q20
    CK24N030  2025 04 11.3051  5.014823  1.000796   86.8665   82.6090   88.7293  20240907   8.0  4.0  C/2024 N3 (Sarneczky)                                    MPEC 2024-R10
    CK24N040  2025 01  9.9151  5.398209  1.005805  116.6657  339.6761   49.7688  20240907   7.5  4.0  C/2024 N4 (Sarneczky)                                    MPEC 2024-R10
    PK24N060  2024 05 19.1790  1.677896  0.550597    1.4605  324.0749   11.3647  20240907  16.5  4.0  P/2024 N6 (NEAT-PANSTARRS)                               MPEC 2024-PC5
    CK24O010  2023 01 29.0376  6.608231  1.001379  349.9270  303.3345   59.0720  20240907   8.5  4.0  C/2024 O1 (PANSTARRS)                                    MPEC 2024-PC5
    PK24O020  2024 04 19.3641  3.696076  0.500140  310.6243    6.8157   28.9643  20240907  12.0  4.0  P/2024 O2 (PANSTARRS)                                    MPEC 2024-R10
    CK24Q030  2025 03  5.1896  2.091954  1.001866   70.1090  337.2841  121.3808  20240907  15.0  4.0  C/2024 Q3 (PANSTARRS)                                    MPEC 2024-RI1
